NORAD_CAT_ID,OBJECT_NAME,OBJECT_TYPE,EPOCH,MEAN_MOTION,ECCENTRICITY,INCLINATION,RA_OF_ASC_NODE,ARG_OF_PERICENTER,MEAN_ANOMALY,BSTAR,MEAN_MOTION_DOT,MEAN_MOTION_DDOT,TLE_LINE0,TLE_LINE1,TLE_LINE2,SEMIMAJOR_AXIS,PERIOD,APOGEE,PERIGEE,DECAYED
51733.0,STARLINK-3525,PAYLOAD,2022-06-08 14:00:01,15.0884854,0.000165,53.2172,349.7507,51.2107,71.063,-0.0012085,-0.00019474,0.0,0 STARLINK-3525,1 51733U 22016V   22159.58334491 -.00019474  00000-0 -12085-2 0  9991,2 51733  53.2172 349.7507 0001650  51.2107  71.0630 15.08848540 17798,6917.854,95.437,540.861,538.578,0.0
51733.0,STARLINK-3525,PAYLOAD,2022-06-08 22:00:01,15.08817763,0.000181,53.2169,348.2561,44.7681,89.1681,0.0017404,0.00027502,0.0,0 STARLINK-3525,1 51733U 22016V   22159.91668981  .00027502  00000-0  17404-2 0  9991,2 51733  53.2169 348.2561 0001810  44.7681  89.1681 15.08817763  1309,6917.948,95.439,541.066,538.561,0.0
51733.0,STARLINK-3525,PAYLOAD,2022-06-09 14:00:01,15.08836007,0.0001709,53.2167,345.2619,53.9877,103.0426,-0.00050704,-8.348e-05,0.0,0 STARLINK-3525,1 51733U 22016V   22160.58334491 -.00008348  00000-0 -50704-3 0  9992,2 51733  53.2167 345.2619 0001709  53.9877 103.0426 15.08836007  1309,6917.893,95.438,540.94,538.575,0.0
51733.0,STARLINK-3525,PAYLOAD,2022-06-09 22:00:00,15.08808293,0.0001864,53.2163,343.7672,47.4243,121.197,0.0026198,0.00041617,0.0,0 STARLINK-3525,1 51733U 22016V   22160.91667824  .00041617  00000-0  26198-2 0  9991,2 51733  53.2163 343.7672 0001864  47.4243 121.1970 15.08808293  1305,6917.977,95.44,541.132,538.553,0.0
51733.0,STARLINK-3525,PAYLOAD,2022-06-10 00:00:00,15.08816572,0.000185,53.2159,343.39300000000014,46.8041,214.7083,0.0021286,0.0003373,0.0,0 STARLINK-3525,1 51733U 22016V   22161.00001157  .00033730  00000-0  21286-2 0  9993,2 51733  53.2159 343.3930 0001850  46.8041 214.7083 15.08816572 18005,6917.9519999999975,95.439,541.097,538.5369999999998,0.0
51733.0,STARLINK-3525,PAYLOAD,2022-06-10 14:00:01,15.08853937,0.0001751999999999,53.2161,340.7726,54.7967,136.9894,-0.00065185,-0.00010651,0.0,0 STARLINK-3525,1 51733U 22016V   22161.58334491 -.00010651  00000-0 -65185-3 0  9992,2 51733  53.2161 340.7726 0001752  54.7967 136.9894 15.08853937  1304,6917.8380000000025,95.437,540.915,538.491,0.0
51733.0,STARLINK-3525,PAYLOAD,2022-06-10 22:00:00,15.08831734,0.0001881,53.2158,339.2776,47.3661,156.032,0.0019327,0.00030598,0.0,0 STARLINK-3525,1 51733U 22016V   22161.91667824  .00030598  00000-0  19327-2 0  9994,2 51733  53.2158 339.2776 0001881  47.3661 156.0320 15.08831734 18148,6917.906,95.438,541.072,538.469,0.0
51733.0,STARLINK-3525,PAYLOAD,2022-06-11 14:00:01,15.08844577,0.0001719,53.2157,336.2832,52.224,174.3487,-0.0007978,-0.00012964,0.0,0 STARLINK-3525,1 51733U 22016V   22162.58334491 -.00012964  00000-0 -79780-3 0  9998,2 51733  53.2157 336.2832 0001719  52.2240 174.3487 15.08844577 18242,6917.866,95.437,540.9209999999998,538.5419999999998,0.0
51733.0,STARLINK-3525,PAYLOAD,2022-06-11 22:00:00,15.08815269,0.0001877,53.2156,334.7881,45.3941,192.7798,0.0033982,0.00054174,0.0,0 STARLINK-3525,1 51733U 22016V   22162.91667824  .00054174  00000-0  33982-2 0  9994,2 51733  53.2156 334.7881 0001877  45.3941 192.7798 15.08815269  1308,6917.956,95.439,541.119,538.5219999999998,0.0
51733.0,STARLINK-3525,PAYLOAD,2022-06-12 14:00:01,15.08854356,0.0001867,53.2158,331.7935,53.261,208.1034,-0.0023454,-0.00037437,0.0,0 STARLINK-3525,1 51733U 22016V   22163.58334491 -.00037437  00000-0 -23454-2 0  9997,2 51733  53.2158 331.7935 0001867  53.2610 208.1034 15.08854356 18399,6917.837,95.437,540.993,538.41,0.0
51733.0,STARLINK-3525,PAYLOAD,2022-06-12 22:00:00,15.08813181,0.000203,53.2158,330.2984,47.9076,225.0606,0.0034479,0.00054974,0.0,0 STARLINK-3525,1 51733U 22016V   22163.91667824  .00054974  00000-0  34479-2 0  9995,2 51733  53.2158 330.2984 0002030  47.9076 225.0606 15.08813181  1303,6917.962,95.439,541.232,538.423,0.0
51733.0,STARLINK-3525,PAYLOAD,2022-06-13 06:00:02,15.088347099999998,0.0001868,53.2162,328.7999,51.8364,232.7908,0.0018698,0.00029591,0.0,0 STARLINK-3525,1 51733U 22016V   22164.25002315  .00029591  00000-0  18698-2 0  9993,2 51733  53.2162 328.7999 0001868  51.8364 232.7908 15.08834710 18497,6917.897,95.438,541.054,538.469,0.0
51733.0,STARLINK-3525,PAYLOAD,2022-06-13 14:00:01,15.08876097,0.0001881,53.2164,327.3039,51.9042,244.2552,-0.0038581,-0.0006123,0.0,0 STARLINK-3525,1 51733U 22016V   22164.58334491 -.00061230  00000-0 -38581-2 0  9993,2 51733  53.2164 327.3039 0001881  51.9042 244.2552 15.08876097  1307,6917.77,95.435,540.936,538.3340000000002,0.0
51733.0,STARLINK-3525,PAYLOAD,2022-06-13 22:00:00,15.08832345,0.0001941,53.2163,325.8086,44.6049,263.175,0.0017498,0.00027664,0.0,0 STARLINK-3525,1 51733U 22016V   22164.91667824  .00027664  00000-0  17498-2 0  9994,2 51733  53.2163 325.8086 0001941  44.6049 263.1750 15.08832345 18591,6917.904,95.438,541.112,538.4259999999998,0.0
51733.0,STARLINK-3525,PAYLOAD,2022-06-14 14:00:01,15.08859949,0.0001728,53.2169,322.8145,46.8876,284.0679,-0.0035474,-0.00056335,0.0,0 STARLINK-3525,1 51733U 22016V   22165.58334491 -.00056335  00000-0 -35474-2 0  9992,2 51733  53.2169 322.8145 0001728  46.8876 284.0679 15.08859949 18697,6917.819,95.436,540.88,538.489,0.0
51733.0,STARLINK-3525,PAYLOAD,2022-06-14 22:00:00,15.08797913,0.0001803,53.2166,321.3192,40.0324,302.521,0.0027647,0.00043936,0.0,0 STARLINK-3525,1 51733U 22016V   22165.91667824  .00043936  00000-0  27647-2 0  9992,2 51733  53.2166 321.3192 0001803  40.0324 302.5210 15.08797913  1307,6918.009,95.44,541.121,538.627,0.0
51733.0,STARLINK-3525,PAYLOAD,2022-06-15 06:00:00,15.08803381,0.00016,53.2168,319.8211,45.6913,308.436,0.0029726,0.00047291,0.0,0 STARLINK-3525,1 51733U 22016V   22166.25001157  .00047291  00000-0  29726-2 0  9999,2 51733  53.2168 319.8211 0001600  45.6913 308.4360 15.08803381 18792,6917.9919999999975,95.44,540.964,538.75,0.0
51733.0,STARLINK-3525,PAYLOAD,2022-06-15 14:00:01,15.08849255,0.0001686999999999,53.2171,318.3256,45.3597,320.3322,-0.0012132999999999,-0.00019551,0.0,0 STARLINK-3525,1 51733U 22016V   22166.58334491 -.00019551  00000-0 -12133-2 0  9999,2 51733  53.2171 318.3256 0001687  45.3597 320.3322 15.08849255  1309,6917.852,95.437,540.884,538.55,0.0
51733.0,STARLINK-3525,PAYLOAD,2022-06-15 22:00:00,15.08845395,0.0001815,53.2166,316.8301,40.5734,336.72,0.0003415,5.152e-05,0.0,0 STARLINK-3525,1 51733U 22016V   22166.91667824  .00005152  00000-0  34150-3 0  9999,2 51733  53.2166 316.8301 0001815  40.5734 336.7200 15.08845395 18901,6917.864000000001,95.437,540.984,538.4730000000002,0.0
51733.0,STARLINK-3525,PAYLOAD,2022-06-16 02:00:01,15.08873286,0.000174,53.2167,316.0809,44.6034,158.4938,-0.0035083,-0.00055742,0.0,0 STARLINK-3525,1 51733U 22016V   22167.08334491 -.00055742  00000-0 -35083-2 0  9996,2 51733  53.2167 316.0809 0001740  44.6034 158.4938 15.08873286  1305,6917.779,95.435,540.847,538.44,0.0
51733.0,STARLINK-3525,PAYLOAD,2022-06-19 14:00:01,15.08839062,0.0001899,53.2154,300.3702,46.8873,97.9365,-0.0013459,-0.00021644,0.0,0 STARLINK-3525,1 51733U 22016V   22170.58334491 -.00021644  00000-0 -13459-2 0  9992,2 51733  53.2154 300.3702 0001899  46.8873  97.9365 15.08839062  1304,6917.8830000000025,95.438,541.062,538.435,0.0
51733.0,STARLINK-3525,PAYLOAD,2022-06-19 20:00:01,15.08827412,0.000196,53.2153,299.2485,42.5521,20.9658,0.00068365,0.00010605,0.0,0 STARLINK-3525,1 51733U 22016V   22170.83334491  .00010605  00000-0  68365-3 0  9990,2 51733  53.2153 299.2485 0001960  42.5521  20.9658 15.08827412 19495,6917.919,95.438,541.14,538.428,0.0
51733.0,STARLINK-3525,PAYLOAD,2022-06-19 22:00:00,15.08847585,0.000194,53.2152,298.874,42.57100000000001,113.8379,-0.0021601,-0.0003451,0.0,0 STARLINK-3525,1 51733U 22016V   22170.91667824 -.00034510  00000-0 -21601-2 0  9992,2 51733  53.2152 298.8740 0001940  42.5710 113.8379 15.08847585  1307,6917.857,95.437,541.064,538.38,0.0
51733.0,STARLINK-3525,PAYLOAD,2022-06-20 14:00:01,15.08837004,0.0001911,53.2155,295.8811,44.5308,135.0331,-0.00095913,-0.00015519,0.0,0 STARLINK-3525,1 51733U 22016V   22171.58334491 -.00015519  00000-0 -95913-3 0  9993,2 51733  53.2155 295.8811 0001911  44.5308 135.0331 15.08837004  1308,6917.89,95.438,541.077,538.433,0.0
51733.0,STARLINK-3525,PAYLOAD,2022-06-20 22:00:00,15.0884331,0.0001908,53.2154,294.3846,40.3935,150.7557,-0.0020551,-0.0003285,0.0,0 STARLINK-3525,1 51733U 22016V   22171.91667824 -.00032850  00000-0 -20551-2 0  9991,2 51733  53.2154 294.3846 0001908  40.3935 150.7557 15.08843310  1306,6917.87,95.437,541.055,538.415,0.0
51733.0,STARLINK-3525,PAYLOAD,2022-06-21 06:00:00,15.08809725,0.0001724,53.2156,292.8866,44.4804,158.2619,0.0032215,0.00051313,0.0,0 STARLINK-3525,1 51733U 22016V   22172.25001157  .00051313  00000-0  32215-2 0  9993,2 51733  53.2156 292.8866 0001724  44.4804 158.2619 15.08809725 19706,6917.973000000001,95.439,541.031,538.645,0.0
51733.0,STARLINK-3525,PAYLOAD,2022-06-21 14:00:01,15.08838991,0.0001904,53.2158,291.3918,42.3312,171.9847,-0.00030256,-5.1e-05,0.0,0 STARLINK-3525,1 51733U 22016V   22172.58334491 -.00005100  00000-0 -30256-3 0  9998,2 51733  53.2158 291.3918 0001904  42.3312 171.9847 15.08838991  1300,6917.8830000000025,95.438,541.066,538.431,0.0
51733.0,STARLINK-3525,PAYLOAD,2022-06-21 22:00:00,15.08867616,0.0001933,53.2156,289.8951,41.5352,184.3649,-0.0034663,-0.00055075,0.0,0 STARLINK-3525,1 51733U 22016V   22172.91667824 -.00055075  00000-0 -34663-2 0  9995,2 51733  53.2156 289.8951 0001933  41.5352 184.3649 15.08867616  1308,6917.795999999999,95.436,540.998,538.3240000000002,0.0
51733.0,STARLINK-3525,PAYLOAD,2022-06-22 00:00:02,15.08868615,0.0001892,53.2158,289.5205,42.6917,276.1732,-0.0045306,-0.00071733,0.0,0 STARLINK-3525,1 51733U 22016V   22173.00002315 -.00071733  00000-0 -45306-2 0  9999,2 51733  53.2158 289.5205 0001892  42.6917 276.1732 15.08868615 19810,6917.793000000002,95.436,540.967,538.349,0.0
